[{"OBJECT_NAME":"COSMOS 2550","OBJECT_ID":"2021-056A","EPOCH":"2026-03-08T11:22:34.326624","MEAN_MOTION":15.33829151,"ECCENTRICITY":0.00083692,"INCLINATION":67.1451,"RA_OF_ASC_NODE":44.6088,"ARG_OF_PERICENTER":269.6014,"MEAN_ANOMALY":90.4182,"EPHEMERIS_TYPE":0,"CLASSIFICATION_TYPE":"U","NORAD_CAT_ID":48865,"ELEMENT_SET_NO":999,"REV_AT_EPOCH":26327,"BSTAR":-1.3338e-8,"MEAN_MOTION_DOT":-1.92e-6,"MEAN_MOTION_DDOT":0},{"OBJECT_NAME":"STARLINK-31773","OBJECT_ID":"2024-065J","EPOCH":"2026-03-09T21:22:59.562624","MEAN_MOTION":15.30190191,"ECCENTRICITY":0.00011563,"INCLINATION":53.1598,"RA_OF_ASC_NODE":282.6283,"ARG_OF_PERICENTER":105.9677,"MEAN_ANOMALY":254.1451,"EPHEMERIS_TYPE":0,"CLASSIFICATION_TYPE":"U","NORAD_CAT_ID":59429,"ELEMENT_SET_NO":999,"REV_AT_EPOCH":10893,"BSTAR":3.5566552e-5,"MEAN_MOTION_DOT":6.94e-6,"MEAN_MOTION_DDOT":0}]
